start=new Date('2021-08-24T00:00:00.000Z').valueOf();
sats=[{"DECAY_DATE":null,"MEAN_MOTION":"15.06384901","ELEMENT_SET_NO":"999","TIME_SYSTEM":"UTC","INCLINATION":"53.0569","SEMIMAJOR_AXIS":"6925.395","EPOCH":"2021-08-23T21:30:44.640864","PERIAPSIS":"546.215","SITE":"AFETR","PERIOD":"95.593","RCS_SIZE":"LARGE","ECCENTRICITY":"0.00015090","REV_AT_EPOCH":"2603","REF_FRAME":"TEME","TLE_LINE2":"2 47887  53.0569 168.2173 0001509  65.1242 294.9904 15.06384901 26032","NORAD_CAT_ID":"47887","EPHEMERIS_TYPE":"0","ARG_OF_PERICENTER":"65.1242","MEAN_ELEMENT_THEORY":"SGP4","APOAPSIS":"548.305","BSTAR":"0.00000760700000","CLASSIFICATION_TYPE":"U","OBJECT_ID":"2021-021AD","GP_ID":"183331198","MEAN_MOTION_DOT":"-0.00000168","OBJECT_NAME":"STARLINK-2346","RA_OF_ASC_NODE":"168.2173","MEAN_ANOMALY":"294.9904","LAUNCH_DATE":"2021-03-14","OBJECT_TYPE":"PAYLOAD","TLE_LINE1":"1 47887U 21021AD  21235.89635001 -.00000168  00000-0  76070-5 0  9996","MEAN_MOTION_DDOT":"0.0000000000000","FILE":"3102124","COUNTRY_CODE":"US","CENTER_NAME":"EARTH"},{"COUNTRY_CODE":"US","MEAN_MOTION_DDOT":"0.0000000000000","FILE":"3102110","CENTER_NAME":"EARTH","MEAN_ANOMALY":"287.0125","TLE_LINE1":"1 47888U 21021AE  21235.52130509  .00000668  00000-0  63765-4 0  9990","LAUNCH_DATE":"2021-03-14","OBJECT_TYPE":"PAYLOAD","MEAN_MOTION_DOT":"0.00000668","GP_ID":"183308790","RA_OF_ASC_NODE":"159.9009","OBJECT_NAME":"STARLINK-2348","CLASSIFICATION_TYPE":"U","OBJECT_ID":"2021-021AE","NORAD_CAT_ID":"47888","APOAPSIS":"548.725","BSTAR":"0.00006376500000","EPHEMERIS_TYPE":"0","MEAN_ELEMENT_THEORY":"SGP4","ARG_OF_PERICENTER":"73.1100","REV_AT_EPOCH":"2564","ECCENTRICITY":"0.00021530","TLE_LINE2":"2 47888  53.0550 159.9009 0002153  73.1100 287.0125 15.06393420 25646","REF_FRAME":"TEME","SITE":"AFETR","PERIAPSIS":"545.743","PERIOD":"95.593","RCS_SIZE":"LARGE","TIME_SYSTEM":"UTC","MEAN_MOTION":"15.06393420","DECAY_DATE":null,"ELEMENT_SET_NO":"999","SEMIMAJOR_AXIS":"6925.369","EPOCH":"2021-08-23T12:30:40.759776","INCLINATION":"53.0550"},{"CLASSIFICATION_TYPE":"U","OBJECT_ID":"2021-021AF","MEAN_MOTION_DOT":"0.00000695","GP_ID":"183330197","RA_OF_ASC_NODE":"158.0651","OBJECT_NAME":"STARLINK-2349","MEAN_ANOMALY":"289.5572","TLE_LINE1":"1 47889U 21021AF  21235.93043682  .00000695  00000-0  65534-4 0  9997","OBJECT_TYPE":"PAYLOAD","LAUNCH_DATE":"2021-03-14","COUNTRY_CODE":"US","FILE":"3102124","MEAN_MOTION_DDOT":"0.0000000000000","CENTER_NAME":"EARTH","TIME_SYSTEM":"UTC","ELEMENT_SET_NO":"999","MEAN_MOTION":"15.06404596","DECAY_DATE":null,"EPOCH":"2021-08-23T22:19:49.741248","SEMIMAJOR_AXIS":"6925.334","INCLINATION":"53.0561","SITE":"AFETR","PERIAPSIS":"545.732","RCS_SIZE":"LARGE","PERIOD":"95.592","REV_AT_EPOCH":"2623","ECCENTRICITY":"0.00021190","TLE_LINE2":"2 47889  53.0561 158.0651 0002119  70.5645 289.5572 15.06404596 26235","REF_FRAME":"TEME","NORAD_CAT_ID":"47889","BSTAR":"0.00006553400000","APOAPSIS":"548.667","MEAN_ELEMENT_THEORY":"SGP4","ARG_OF_PERICENTER":"70.5645","EPHEMERIS_TYPE":"0"},{"RCS_SIZE":"LARGE","PERIOD":"95.592","PERIAPSIS":"545.945","SITE":"AFETR","INCLINATION":"53.0556","EPOCH":"2021-08-23T13:17:08.008224","SEMIMAJOR_AXIS":"6925.358","ELEMENT_SET_NO":"999","DECAY_DATE":null,"MEAN_MOTION":"15.06396856","TIME_SYSTEM":"UTC","ARG_OF_PERICENTER":"62.9137","MEAN_ELEMENT_THEORY":"SGP4","EPHEMERIS_TYPE":"0","BSTAR":"0.00003524600000","APOAPSIS":"548.501","NORAD_CAT_ID":"47890","REF_FRAME":"TEME","TLE_LINE2":"2 47890  53.0556 169.7528 0001845  62.9137 297.2040 15.06396856 25031","ECCENTRICITY":"0.00018450","REV_AT_EPOCH":"2503","OBJECT_NAME":"STARLINK-2350","RA_OF_ASC_NODE":"169.7528","GP_ID":"183304004","MEAN_MOTION_DOT":"0.00000243","OBJECT_ID":"2021-021AG","CLASSIFICATION_TYPE":"U","CENTER_NAME":"EARTH","FILE":"3101910","MEAN_MOTION_DDOT":"0.0000000000000","COUNTRY_CODE":"US","OBJECT_TYPE":"PAYLOAD","LAUNCH_DATE":"2021-03-14","TLE_LINE1":"1 47890U 21021AG  21235.55356491  .00000243  00000-0  35246-4 0  9998","MEAN_ANOMALY":"297.2040"},{"CLASSIFICATION_TYPE":"U","OBJECT_ID":"2021-021AH","GP_ID":"183302752","MEAN_MOTION_DOT":"-0.00001183","OBJECT_NAME":"STARLINK-2351","RA_OF_ASC_NODE":"169.8222","MEAN_ANOMALY":"290.2532","OBJECT_TYPE":"PAYLOAD","LAUNCH_DATE":"2021-03-14","TLE_LINE1":"1 47891U 21021AH  21235.53882013 -.00001183  00000-0 -60515-4 0  9994","FILE":"3101910","MEAN_MOTION_DDOT":"0.0000000000000","COUNTRY_CODE":"US","CENTER_NAME":"EARTH","ELEMENT_SET_NO":"999","MEAN_MOTION":"15.06387258","DECAY_DATE":null,"TIME_SYSTEM":"UTC","INCLINATION":"53.0547","EPOCH":"2021-08-23T12:55:54.059232","SEMIMAJOR_AXIS":"6925.388","PERIAPSIS":"546.059","SITE":"AFETR","RCS_SIZE":"LARGE","PERIOD":"95.593","ECCENTRICITY":"0.00017240","REV_AT_EPOCH":"2614","REF_FRAME":"TEME","TLE_LINE2":"2 47891  53.0547 169.8222 0001724  69.8642 290.2532 15.06387258 26145","NORAD_CAT_ID":"47891","ARG_OF_PERICENTER":"69.8642","MEAN_ELEMENT_THEORY":"SGP4","EPHEMERIS_TYPE":"0","BSTAR":"-0.00006051500000","APOAPSIS":"548.447"},{"REF_FRAME":"TEME","TLE_LINE2":"2 47892  53.0555 170.9298 0001931  65.0852 295.0338 15.06392551 25948","ECCENTRICITY":"0.00019310","REV_AT_EPOCH":"2594","MEAN_ELEMENT_THEORY":"SGP4","ARG_OF_PERICENTER":"65.0852","EPHEMERIS_TYPE":"0","BSTAR":"-0.00005627700000","APOAPSIS":"548.574","NORAD_CAT_ID":"47892","INCLINATION":"53.0555","EPOCH":"2021-08-23T07:00:16.551072","SEMIMAJOR_AXIS":"6925.371","ELEMENT_SET_NO":"999","MEAN_MOTION":"15.06392551","DECAY_DATE":null,"TIME_SYSTEM":"UTC","RCS_SIZE":"LARGE","PERIOD":"95.593","PERIAPSIS":"545.899","SITE":"AFETR","OBJECT_TYPE":"PAYLOAD","LAUNCH_DATE":"2021-03-14","TLE_LINE1":"1 47892U 21021AJ  21235.29185823 -.00001120  00000-0 -56277-4 0  9994","MEAN_ANOMALY":"295.0338","CENTER_NAME":"EARTH","FILE":"3101910","MEAN_MOTION_DDOT":"0.0000000000000","COUNTRY_CODE":"US","OBJECT_ID":"2021-021AJ","CLASSIFICATION_TYPE":"U","OBJECT_NAME":"STARLINK-2352","RA_OF_ASC_NODE":"170.9298","GP_ID":"183302503","MEAN_MOTION_DOT":"-0.00001120"},{"CENTER_NAME":"EARTH","COUNTRY_CODE":"US","FILE":"3102124","MEAN_MOTION_DDOT":"0.0000000000000","TLE_LINE1":"1 47894U 21021AL  21235.89358597  .00000771  00000-0  70682-4 0  9997","OBJECT_TYPE":"PAYLOAD","LAUNCH_DATE":"2021-03-14","MEAN_ANOMALY":"286.1491","RA_OF_ASC_NODE":"158.2296","OBJECT_NAME":"STARLINK-2354","MEAN_MOTION_DOT":"0.00000771","GP_ID":"183329697","OBJECT_ID":"2021-021AL","CLASSIFICATION_TYPE":"U","BSTAR":"0.00007068200000","APOAPSIS":"548.632","ARG_OF_PERICENTER":"73.9720","MEAN_ELEMENT_THEORY":"SGP4","EPHEMERIS_TYPE":"0","NORAD_CAT_ID":"47894","TLE_LINE2":"2 47894  53.0562 158.2296 0002015  73.9720 286.1491 15.06392340 26129","REF_FRAME":"TEME","REV_AT_EPOCH":"2612","ECCENTRICITY":"0.00020150","RCS_SIZE":"LARGE","PERIOD":"95.593","SITE":"AFETR","PERIAPSIS":"545.842","EPOCH":"2021-08-23T21:26:45.827808","SEMIMAJOR_AXIS":"6925.372","INCLINATION":"53.0562","TIME_SYSTEM":"UTC","ELEMENT_SET_NO":"999","MEAN_MOTION":"15.06392340","DECAY_DATE":null},{"OBJECT_TYPE":"PAYLOAD","LAUNCH_DATE":"2021-03-14","TLE_LINE1":"1 47895U 21021AM  21235.50656109  .00000853  00000-0  76202-4 0  9991","MEAN_ANOMALY":"288.3389","CENTER_NAME":"EARTH","FILE":"3101910","MEAN_MOTION_DDOT":"0.0000000000000","COUNTRY_CODE":"US","OBJECT_ID":"2021-021AM","CLASSIFICATION_TYPE":"U","OBJECT_NAME":"STARLINK-2355","RA_OF_ASC_NODE":"159.9669","GP_ID":"183303505","MEAN_MOTION_DOT":"0.00000853","REF_FRAME":"TEME","TLE_LINE2":"2 47895  53.0558 159.9669 0002050  71.7823 288.3389 15.06393844 26092","ECCENTRICITY":"0.00020500","REV_AT_EPOCH":"2609","MEAN_ELEMENT_THEORY":"SGP4","ARG_OF_PERICENTER":"71.7823","EPHEMERIS_TYPE":"0","BSTAR":"0.00007620200000","APOAPSIS":"548.652","NORAD_CAT_ID":"47895","INCLINATION":"53.0558","EPOCH":"2021-08-23T12:09:26.878176","SEMIMAJOR_AXIS":"6925.367","ELEMENT_SET_NO":"999","DECAY_DATE":null,"MEAN_MOTION":"15.06393844","TIME_SYSTEM":"UTC","RCS_SIZE":"LARGE","PERIOD":"95.593","PERIAPSIS":"545.813","SITE":"AFETR"},{"ECCENTRICITY":"0.00014520","REV_AT_EPOCH":"2543","REF_FRAME":"TEME","TLE_LINE2":"2 47896  53.0541 174.6680 0001452  91.3092 268.8064 15.06398268 25438","NORAD_CAT_ID":"47896","EPHEMERIS_TYPE":"0","MEAN_ELEMENT_THEORY":"SGP4","ARG_OF_PERICENTER":"91.3092","APOAPSIS":"548.224","BSTAR":"-0.00004592300000","MEAN_MOTION":"15.06398268","DECAY_DATE":null,"ELEMENT_SET_NO":"999","TIME_SYSTEM":"UTC","INCLINATION":"53.0541","SEMIMAJOR_AXIS":"6925.354","EPOCH":"2021-08-23T13:35:02.704128","PERIAPSIS":"546.213","SITE":"AFETR","PERIOD":"95.592","RCS_SIZE":"LARGE","MEAN_ANOMALY":"268.8064","LAUNCH_DATE":"2021-03-14","OBJECT_TYPE":"PAYLOAD","TLE_LINE1":"1 47896U 21021AN  21235.56600352 -.00000965  00000-0 -45923-4 0  9999","MEAN_MOTION_DDOT":"0.0000000000000","FILE":"3102010","COUNTRY_CODE":"US","CENTER_NAME":"EARTH","CLASSIFICATION_TYPE":"U","OBJECT_ID":"2021-021AN","GP_ID":"183306216","MEAN_MOTION_DOT":"-0.00000965","OBJECT_NAME":"STARLINK-2356","RA_OF_ASC_NODE":"174.6680"},{"EPHEMERIS_TYPE":"0","MEAN_ELEMENT_THEORY":"SGP4","ARG_OF_PERICENTER":"70.7709","APOAPSIS":"548.427","BSTAR":"-0.00003660300000","NORAD_CAT_ID":"47897","REF_FRAME":"TEME","TLE_LINE2":"2 47897  53.0562 159.9840 0001730  70.7709 289.3467 15.06394906 26128","ECCENTRICITY":"0.00017300","REV_AT_EPOCH":"2612","PERIOD":"95.592","RCS_SIZE":"LARGE","PERIAPSIS":"546.031","SITE":"AFETR","INCLINATION":"53.0562","SEMIMAJOR_AXIS":"6925.364","EPOCH":"2021-08-23T12:04:08.266944","DECAY_DATE":null,"MEAN_MOTION":"15.06394906","ELEMENT_SET_NO":"999","TIME_SYSTEM":"UTC","CENTER_NAME":"EARTH","MEAN_MOTION_DDOT":"0.0000000000000","FILE":"3101910","COUNTRY_CODE":"US","LAUNCH_DATE":"2021-03-14","OBJECT_TYPE":"PAYLOAD","TLE_LINE1":"1 47897U 21021AP  21235.50287346 -.00000827  00000-0 -36603-4 0  9990","MEAN_ANOMALY":"289.3467","OBJECT_NAME":"STARLINK-2357","RA_OF_ASC_NODE":"159.9840","GP_ID":"183303003","MEAN_MOTION_DOT":"-0.00000827","OBJECT_ID":"2021-021AP","CLASSIFICATION_TYPE":"U"}];
